{
  "type": "FeatureCollection",
  "name": "NH65_Vijayawada_Hyderabad_Parcels",
  "features": [
    {
      "type": "Feature",
      "properties": {
        "parcel_id": "NH65-TS-001",
        "khasra_number": "142/A",
        "village": "Hayathnagar",
        "tehsil": "Hayathnagar",
        "district": "Rangareddy",
        "state_code": "TS",
        "area_ha": 14.5,
        "project_name": "NH-65 Vijayawada-Hyderabad Expressway Package-2",
        "project_code": "NHAI-NH65-PKG2",
        "project_type": "HIGHWAY"
      },
      "geometry": {
        "type": "Polygon",
        "coordinates": [
          [
            [
              78.585,
              17.32
            ],
            [
              78.591,
              17.32
            ],
            [
              78.591,
              17.326
            ],
            [
              78.585,
              17.326
            ],
            [
              78.585,
              17.32
            ]
          ]
        ]
      }
    },
    {
      "type": "Feature",
      "properties": {
        "parcel_id": "NH65-TS-002",
        "khasra_number": "148/2",
        "village": "Pedda Amberpet",
        "tehsil": "Abdullapurmet",
        "district": "Rangareddy",
        "state_code": "TS",
        "area_ha": 22.8,
        "project_name": "NH-65 Vijayawada-Hyderabad Expressway Package-2",
        "project_code": "NHAI-NH65-PKG2",
        "project_type": "HIGHWAY"
      },
      "geometry": {
        "type": "Polygon",
        "coordinates": [
          [
            [
              78.602,
              17.318
            ],
            [
              78.61,
              17.318
            ],
            [
              78.61,
              17.324
            ],
            [
              78.602,
              17.324
            ],
            [
              78.602,
              17.318
            ]
          ]
        ]
      }
    },
    {
      "type": "Feature",
      "properties": {
        "parcel_id": "NH65-TS-003",
        "khasra_number": "205/B",
        "village": "Koheda",
        "tehsil": "Abdullapurmet",
        "district": "Rangareddy",
        "state_code": "TS",
        "area_ha": 18.25,
        "project_name": "NH-65 Vijayawada-Hyderabad Expressway Package-2",
        "project_code": "NHAI-NH65-PKG2",
        "project_type": "HIGHWAY"
      },
      "geometry": {
        "type": "Polygon",
        "coordinates": [
          [
            [
              78.615,
              17.315
            ],
            [
              78.622,
              17.315
            ],
            [
              78.622,
              17.321
            ],
            [
              78.615,
              17.321
            ],
            [
              78.615,
              17.315
            ]
          ]
        ]
      }
    },
    {
      "type": "Feature",
      "properties": {
        "parcel_id": "NH65-TS-004",
        "khasra_number": "310/1",
        "village": "Choutuppal",
        "tehsil": "Choutuppal",
        "district": "Yadadri Bhuvanagiri",
        "state_code": "TS",
        "area_ha": 31.45,
        "project_name": "NH-65 Vijayawada-Hyderabad Expressway Package-2",
        "project_code": "NHAI-NH65-PKG2",
        "project_type": "HIGHWAY"
      },
      "geometry": {
        "type": "Polygon",
        "coordinates": [
          [
            [
              78.72,
              17.25
            ],
            [
              78.73,
              17.25
            ],
            [
              78.73,
              17.26
            ],
            [
              78.72,
              17.26
            ],
            [
              78.72,
              17.25
            ]
          ]
        ]
      }
    }
  ]
}